CCSDS_OMM_VERS = 2.0
CREATION_DATE  = 
ORIGINATOR     = 

OBJECT_NAME    = STARLINK-37054
OBJECT_ID      = 2026-042P
CENTER_NAME    = EARTH
REF_FRAME      = TEME
TIME_SYSTEM    = UTC
MEAN_ELEMENT_THEORY = SGP/SGP4

EPOCH          = 2026-03-28T22:00:01.999584
MEAN_MOTION    = 15.80799449
ECCENTRICITY   = .00013171
INCLINATION    = 53.1568
RA_OF_ASC_NODE = 98.3041
ARG_OF_PERICENTER = 59.8541
MEAN_ANOMALY   = 5.7475

EPHEMERIS_TYPE = 0
CLASSIFICATION_TYPE = U
NORAD_CAT_ID   = 68082
ELEMENT_SET_NO = 999
REV_AT_EPOCH   = 514
BSTAR          = .66641095E-3
MEAN_MOTION_DOT = .132413E-2
MEAN_MOTION_DDOT = 0

CCSDS_OMM_VERS = 2.0
CREATION_DATE  = 
ORIGINATOR     = 

OBJECT_NAME    = STARLINK-37065
OBJECT_ID      = 2026-042Q
CENTER_NAME    = EARTH
REF_FRAME      = TEME
TIME_SYSTEM    = UTC
MEAN_ELEMENT_THEORY = SGP/SGP4

EPOCH          = 2026-03-27T11:31:26.577408
MEAN_MOTION    = 15.75546988
ECCENTRICITY   = .0001294
INCLINATION    = 53.1585
RA_OF_ASC_NODE = 105.8417
ARG_OF_PERICENTER = 183.6169
MEAN_ANOMALY   = 176.4842

EPHEMERIS_TYPE = 0
CLASSIFICATION_TYPE = U
NORAD_CAT_ID   = 68083
ELEMENT_SET_NO = 999
REV_AT_EPOCH   = 489
BSTAR          = .22573E-2
MEAN_MOTION_DOT = .365638E-2
MEAN_MOTION_DDOT = 0

CCSDS_OMM_VERS = 2.0
CREATION_DATE  = 
ORIGINATOR     = 

OBJECT_NAME    = STARLINK-37037
OBJECT_ID      = 2026-042R
CENTER_NAME    = EARTH
REF_FRAME      = TEME
TIME_SYSTEM    = UTC
MEAN_ELEMENT_THEORY = SGP/SGP4

EPOCH          = 2026-03-28T17:32:32.468640
MEAN_MOTION    = 15.75295062
ECCENTRICITY   = .000132
INCLINATION    = 53.1591
RA_OF_ASC_NODE = 99.4146
ARG_OF_PERICENTER = 116.1185
MEAN_ANOMALY   = 243.9971

EPHEMERIS_TYPE = 0
CLASSIFICATION_TYPE = U
NORAD_CAT_ID   = 68084
ELEMENT_SET_NO = 999
REV_AT_EPOCH   = 509
BSTAR          = .1532E-2
MEAN_MOTION_DOT = .241618E-2
MEAN_MOTION_DDOT = 0

CCSDS_OMM_VERS = 2.0
CREATION_DATE  = 
ORIGINATOR     = 

OBJECT_NAME    = STARLINK-37068
OBJECT_ID      = 2026-042S
CENTER_NAME    = EARTH
REF_FRAME      = TEME
TIME_SYSTEM    = UTC
MEAN_ELEMENT_THEORY = SGP/SGP4

EPOCH          = 2026-03-28T22:00:01.999584
MEAN_MOTION    = 15.75194318
ECCENTRICITY   = .00013531
INCLINATION    = 53.1590
RA_OF_ASC_NODE = 98.3348
ARG_OF_PERICENTER = 81.1792
MEAN_ANOMALY   = 328.3278

EPHEMERIS_TYPE = 0
CLASSIFICATION_TYPE = U
NORAD_CAT_ID   = 68085
ELEMENT_SET_NO = 999
REV_AT_EPOCH   = 514
BSTAR          = .63036476E-3
MEAN_MOTION_DOT = .96911E-3
MEAN_MOTION_DDOT = 0

CCSDS_OMM_VERS = 2.0
CREATION_DATE  = 
ORIGINATOR     = 

OBJECT_NAME    = STARLINK-37067
OBJECT_ID      = 2026-042T
CENTER_NAME    = EARTH
REF_FRAME      = TEME
TIME_SYSTEM    = UTC
MEAN_ELEMENT_THEORY = SGP/SGP4

EPOCH          = 2026-03-28T12:32:55.437504
MEAN_MOTION    = 15.80999185
ECCENTRICITY   = .00013454
INCLINATION    = 53.1582
RA_OF_ASC_NODE = 100.2420
ARG_OF_PERICENTER = 132.7786
MEAN_ANOMALY   = 227.3351

EPHEMERIS_TYPE = 0
CLASSIFICATION_TYPE = U
NORAD_CAT_ID   = 68086
ELEMENT_SET_NO = 999
REV_AT_EPOCH   = 506
BSTAR          = .11339411E-2
MEAN_MOTION_DOT = .230517E-2
MEAN_MOTION_DDOT = 0

CCSDS_OMM_VERS = 2.0
CREATION_DATE  = 
ORIGINATOR     = 

OBJECT_NAME    = STARLINK-37062
OBJECT_ID      = 2026-042U
CENTER_NAME    = EARTH
REF_FRAME      = TEME
TIME_SYSTEM    = UTC
MEAN_ELEMENT_THEORY = SGP/SGP4

EPOCH          = 2026-03-28T12:31:49.871136
MEAN_MOTION    = 15.81050491
ECCENTRICITY   = .00009373
INCLINATION    = 53.1586
RA_OF_ASC_NODE = 100.2374
ARG_OF_PERICENTER = 139.8452
MEAN_ANOMALY   = 220.2641

EPHEMERIS_TYPE = 0
CLASSIFICATION_TYPE = U
NORAD_CAT_ID   = 68087
ELEMENT_SET_NO = 999
REV_AT_EPOCH   = 506
BSTAR          = .1771199E-2
MEAN_MOTION_DOT = .367155E-2
MEAN_MOTION_DDOT = 0

CCSDS_OMM_VERS = 2.0
CREATION_DATE  = 
ORIGINATOR     = 

OBJECT_NAME    = STARLINK-37059
OBJECT_ID      = 2026-042V
CENTER_NAME    = EARTH
REF_FRAME      = TEME
TIME_SYSTEM    = UTC
MEAN_ELEMENT_THEORY = SGP/SGP4

EPOCH          = 2026-03-28T22:00:01.999584
MEAN_MOTION    = 15.75207954
ECCENTRICITY   = .00012322
INCLINATION    = 53.1591
RA_OF_ASC_NODE = 98.2781
ARG_OF_PERICENTER = 75.5194
MEAN_ANOMALY   = 1.6160

EPHEMERIS_TYPE = 0
CLASSIFICATION_TYPE = U
NORAD_CAT_ID   = 68088
ELEMENT_SET_NO = 999
REV_AT_EPOCH   = 514
BSTAR          = .1865323E-3
MEAN_MOTION_DOT = .28009E-3
MEAN_MOTION_DDOT = 0

CCSDS_OMM_VERS = 2.0
CREATION_DATE  = 
ORIGINATOR     = 

OBJECT_NAME    = STARLINK-37004
OBJECT_ID      = 2026-042W
CENTER_NAME    = EARTH
REF_FRAME      = TEME
TIME_SYSTEM    = UTC
MEAN_ELEMENT_THEORY = SGP/SGP4

EPOCH          = 2026-03-28T22:00:01.999584
MEAN_MOTION    = 15.75177543
ECCENTRICITY   = .00013743
INCLINATION    = 53.1588
RA_OF_ASC_NODE = 98.3305
ARG_OF_PERICENTER = 103.5874
MEAN_ANOMALY   = 307.8075

EPHEMERIS_TYPE = 0
CLASSIFICATION_TYPE = U
NORAD_CAT_ID   = 68089
ELEMENT_SET_NO = 999
REV_AT_EPOCH   = 514
BSTAR          = .59514462E-3
MEAN_MOTION_DOT = .91333E-3
MEAN_MOTION_DDOT = 0

CCSDS_OMM_VERS = 2.0
CREATION_DATE  = 
ORIGINATOR     = 

OBJECT_NAME    = STARLINK-36320
OBJECT_ID      = 2026-042X
CENTER_NAME    = EARTH
REF_FRAME      = TEME
TIME_SYSTEM    = UTC
MEAN_ELEMENT_THEORY = SGP/SGP4

EPOCH          = 2026-03-27T03:41:33.349344
MEAN_MOTION    = 15.75432358
ECCENTRICITY   = .00027632
INCLINATION    = 53.1593
RA_OF_ASC_NODE = 107.3571
ARG_OF_PERICENTER = 139.4736
MEAN_ANOMALY   = 220.6491

EPHEMERIS_TYPE = 0
CLASSIFICATION_TYPE = U
NORAD_CAT_ID   = 68090
ELEMENT_SET_NO = 999
REV_AT_EPOCH   = 484
BSTAR          = .2325439E-2
MEAN_MOTION_DOT = .375248E-2
MEAN_MOTION_DDOT = 0

CCSDS_OMM_VERS = 2.0
CREATION_DATE  = 
ORIGINATOR     = 

OBJECT_NAME    = STARLINK-36324
OBJECT_ID      = 2026-042Y
CENTER_NAME    = EARTH
REF_FRAME      = TEME
TIME_SYSTEM    = UTC
MEAN_ELEMENT_THEORY = SGP/SGP4

EPOCH          = 2026-03-27T16:00:01.999584
MEAN_MOTION    = 15.75281960
ECCENTRICITY   = .00010156
INCLINATION    = 53.1590
RA_OF_ASC_NODE = 104.8665
ARG_OF_PERICENTER = 79.2879
MEAN_ANOMALY   = 283.0326

EPHEMERIS_TYPE = 0
CLASSIFICATION_TYPE = U
NORAD_CAT_ID   = 68091
ELEMENT_SET_NO = 999
REV_AT_EPOCH   = 493
BSTAR          = -.52598243E-3
MEAN_MOTION_DOT = -.80651E-3
MEAN_MOTION_DDOT = 0

CCSDS_OMM_VERS = 2.0
CREATION_DATE  = 
ORIGINATOR     = 

OBJECT_NAME    = STARLINK-36896
OBJECT_ID      = 2026-042Z
CENTER_NAME    = EARTH
REF_FRAME      = TEME
TIME_SYSTEM    = UTC
MEAN_ELEMENT_THEORY = SGP/SGP4

EPOCH          = 2026-03-28T13:04:57.966240
MEAN_MOTION    = 15.75388113
ECCENTRICITY   = .000442
INCLINATION    = 53.1599
RA_OF_ASC_NODE = 100.3901
ARG_OF_PERICENTER = 174.1508
MEAN_ANOMALY   = 185.9565

EPHEMERIS_TYPE = 0
CLASSIFICATION_TYPE = U
NORAD_CAT_ID   = 68092
ELEMENT_SET_NO = 999
REV_AT_EPOCH   = 505
BSTAR          = .14800129E-2
MEAN_MOTION_DOT = .234211E-2
MEAN_MOTION_DDOT = 0

CCSDS_OMM_VERS = 2.0
CREATION_DATE  = 
ORIGINATOR     = 

OBJECT_NAME    = STARLINK-36251
OBJECT_ID      = 2026-042AA
CENTER_NAME    = EARTH
REF_FRAME      = TEME
TIME_SYSTEM    = UTC
MEAN_ELEMENT_THEORY = SGP/SGP4

EPOCH          = 2026-03-28T12:24:16.692768
MEAN_MOTION    = 15.80994283
ECCENTRICITY   = .00006975
INCLINATION    = 53.1589
RA_OF_ASC_NODE = 100.2023
ARG_OF_PERICENTER = 325.6743
MEAN_ANOMALY   = 34.4234

EPHEMERIS_TYPE = 0
CLASSIFICATION_TYPE = U
NORAD_CAT_ID   = 68093
ELEMENT_SET_NO = 999
REV_AT_EPOCH   = 505
BSTAR          = .17584348E-2
MEAN_MOTION_DOT = .363408E-2
MEAN_MOTION_DDOT = 0

